CSS (TIANHE)            
1 48274U 21035A   24122.59456126  .00039724  00000+0  42911-3 0  9999
2 48274  41.4689   7.7321 0003984 278.2760  81.7628 15.62852683171800
